{
"type": "FeatureCollection",
"name": "poligonos_entrenamiento_grandes",
"crs": { "type": "name", "properties": { "name": "urn:ogc:def:crs:EPSG::32618" } },
"features": [
{ "type": "Feature", "properties": { "id": 1, "clase": "agua" }, "geometry": { "type": "MultiPolygon", "coordinates": [ [ [ [ 628600.549334430019371, 548361.404991625342518 ], [ 629237.551663880934939, 548786.073211259325035 ], [ 629603.238186343456618, 549352.297504104557447 ], [ 629426.293094829306938, 550083.670549029717222 ], [ 630004.313727108878084, 550933.006988297682256 ], [ 630735.686772034037858, 550449.357071492355317 ], [ 630641.316056559793651, 549163.556073156185448 ], [ 629497.071131434990093, 548078.292845202726312 ], [ 629331.922379355062731, 547689.01364387164358 ], [ 628600.549334430019371, 548361.404991625342518 ] ] ] ] } },
{ "type": "Feature", "properties": { "id": 1, "clase": "agua" }, "geometry": { "type": "MultiPolygon", "coordinates": [ [ [ [ 627798.398252899176441, 546993.029617249267176 ], [ 628376.418885178747587, 546757.102828563773073 ], [ 627361.933693830971606, 545778.006655518896878 ], [ 625922.780282849213108, 545695.432279478874989 ], [ 627798.398252899176441, 546993.029617249267176 ] ] ] ] } },
{ "type": "Feature", "properties": { "id": 1, "clase": "agua" }, "geometry": { "type": "MultiPolygon", "coordinates": [ [ [ [ 630476.167304479866289, 551434.351414254400879 ], [ 630594.130698822555132, 552484.22562390496023 ], [ 631325.503743747714907, 553074.042595618753694 ], [ 631667.59758734179195, 552625.781697116326541 ], [ 630759.279450902482495, 550750.163727066363208 ], [ 630086.888103148667142, 551127.646588963223621 ], [ 630476.167304479866289, 552330.873211259371601 ], [ 630617.723377691116184, 552448.83660560217686 ], [ 630747.483111468143761, 552366.262229562154971 ], [ 630511.556322782649659, 552413.447587299277075 ], [ 630511.556322782649659, 552507.818302773521282 ], [ 630476.167304479866289, 551434.351414254400879 ] ] ] ] } },
{ "type": "Feature", "properties": { "id": 2, "clase": "vegetacion" }, "geometry": { "type": "MultiPolygon", "coordinates": [ [ [ [ 624424.645174696110189, 547871.856905102846213 ], [ 624967.276788672897965, 549228.435940044699237 ], [ 626170.503410969045945, 548732.989683805033565 ], [ 624849.313394330092706, 547506.170382640324533 ], [ 623421.956322782672942, 546916.353410926531069 ], [ 623398.36364391411189, 547282.039933389052749 ], [ 624424.645174696110189, 547871.856905102846213 ] ] ] ] } },
{ "type": "Feature", "properties": { "id": 2, "clase": "vegetacion" }, "geometry": { "type": "MultiPolygon", "coordinates": [ [ [ [ 632068.673128107329831, 546969.436938380706124 ], [ 632351.785274529946037, 546686.324791958089918 ], [ 631325.503743747831322, 544515.798336051171646 ], [ 630016.110066543216817, 544822.503161342348903 ], [ 630417.185607308638282, 546238.063893455546349 ], [ 632068.673128107329831, 546969.436938380706124 ] ] ] ] } },
{ "type": "Feature", "properties": { "id": 2, "clase": "vegetacion" }, "geometry": { "type": "MultiPolygon", "coordinates": [ [ [ [ 625981.761980020790361, 542994.07054902962409 ], [ 626359.244841917650774, 543678.258236217661761 ], [ 627232.173960054060444, 543418.738768663606606 ], [ 627161.395923448377289, 542710.958402607007883 ], [ 625757.631530769518577, 542463.235274487175047 ], [ 625368.352329438435845, 543135.6266222409904 ], [ 626064.336356060695834, 543725.443593954783864 ], [ 626276.670465877628885, 543796.22163056046702 ], [ 625981.761980020790361, 542994.07054902962409 ] ] ] ] } },
{ "type": "Feature", "properties": { "id": 2, "clase": "vegetacion" }, "geometry": { "type": "MultiPolygon", "coordinates": [ [ [ [ 627078.821547408471815, 549670.798668830073439 ], [ 627928.157986676320434, 550791.450915086315945 ], [ 628423.604242915986106, 550744.265557349193841 ], [ 628423.604242915986106, 549470.260898447362706 ], [ 628046.121381019125693, 548939.425623904913664 ], [ 627078.821547408471815, 549670.798668830073439 ] ] ] ] } },
{ "type": "Feature", "properties": { "id": 3, "clase": "urbana" }, "geometry": { "type": "MultiPolygon", "coordinates": [ [ [ [ 629042.912063215393573, 545748.515806933166459 ], [ 629821.470465877675451, 545665.941430893260986 ], [ 628995.726705478387885, 545205.884192956495099 ], [ 629042.912063215393573, 545748.515806933166459 ] ] ] ] } },
{ "type": "Feature", "properties": { "id": 4, "clase": "nube" }, "geometry": { "type": "MultiPolygon", "coordinates": [ [ [ [ 627062.601580686168745, 552857.284858513041399 ], [ 627204.157653897418641, 553270.156738712685183 ], [ 627676.011231268523261, 553470.6945090952795 ], [ 627711.400249571306631, 552880.877537381602451 ], [ 627062.601580686168745, 552857.284858513041399 ] ] ] ] } },
{ "type": "Feature", "properties": { "id": 4, "clase": "nube" }, "geometry": { "type": "MultiPolygon", "coordinates": [ [ [ [ 634352.739351068506949, 550321.071880143717863 ], [ 634246.572296160040423, 550273.886522406595759 ], [ 634057.830865211552009, 550828.314475817605853 ], [ 634388.128369371290319, 551205.797337714466266 ], [ 634683.036855228128843, 550875.499833554727957 ], [ 634352.739351068506949, 550321.071880143717863 ] ] ] ] } },
{ "type": "Feature", "properties": { "id": 4, "clase": "nube" }, "geometry": { "type": "MultiPolygon", "coordinates": [ [ [ [ 633190.799916792311706, 554827.273544036783278 ], [ 633344.152329437783919, 555045.505823570885696 ], [ 633644.958985011908226, 554992.42229611671064 ], [ 633674.449833597522229, 554785.986356016830541 ], [ 633361.84683858929202, 554715.208319411263801 ], [ 633190.799916792311706, 554827.273544036783278 ] ] ] ] } },
{ "type": "Feature", "properties": { "id": 4, "clase": "nube" }, "geometry": { "type": "MultiPolygon", "coordinates": [ [ [ [ 629262.61888517846819, 555334.516139710671268 ], [ 629451.360316126840189, 555316.821630559279583 ], [ 629628.30540764098987, 554998.320465833880007 ], [ 629362.887770369881764, 555004.218635550932959 ], [ 629014.895757058751769, 555116.283860176568851 ], [ 629262.61888517846819, 555334.516139710671268 ] ] ] ] } }
]
}
