{
"type": "FeatureCollection",
"name": "poligonos_entrenamiento",
"crs": { "type": "name", "properties": { "name": "urn:ogc:def:crs:EPSG::32618" } },
"features": [
{ "type": "Feature", "properties": { "id": 1, "clase": "agua" }, "geometry": { "type": "MultiPolygon", "coordinates": [ [ [ [ 630947.495750920381397, 552787.836850451421924 ], [ 630599.561800915165804, 552522.744317114003934 ], [ 630723.823925917036831, 552249.367642109980807 ], [ 631071.757875922252424, 552473.039467113325372 ], [ 630947.495750920381397, 552787.836850451421924 ] ] ] ] } },
{ "type": "Feature", "properties": { "id": 1, "clase": "agua" }, "geometry": { "type": "MultiPolygon", "coordinates": [ [ [ [ 627029.09674252779223, 545849.868204513681121 ], [ 627306.615488365292549, 546355.200846188003197 ], [ 627625.554942536749877, 546069.39795868366491 ], [ 627165.785080029862002, 545659.332946177455597 ], [ 627029.09674252779223, 545849.868204513681121 ] ] ] ] } },
{ "type": "Feature", "properties": { "id": 1, "clase": "agua" }, "geometry": { "type": "MultiPolygon", "coordinates": [ [ [ [ 625869.316909177112393, 545506.076325341709889 ], [ 625562.803667505853809, 545232.699650337570347 ], [ 625877.601050843950361, 545000.743683667387813 ], [ 626341.512984184315428, 545191.278942003613338 ], [ 625869.316909177112393, 545506.076325341709889 ] ] ] ] } },
{ "type": "Feature", "properties": { "id": 1, "clase": "agua" }, "geometry": { "type": "MultiPolygon", "coordinates": [ [ [ [ 627360.462409199681133, 546218.512508685817011 ], [ 628197.160717545542866, 546268.217358686611988 ], [ 627608.986659203423187, 545638.622592010418884 ], [ 627360.462409199681133, 546218.512508685817011 ] ] ] ] } },
{ "type": "Feature", "properties": { "id": 1, "clase": "agua" }, "geometry": { "type": "MultiPolygon", "coordinates": [ [ [ [ 626314.589523767237552, 553802.644204633659683 ], [ 626099.201840430730954, 553657.671725464868359 ], [ 626211.037752932403237, 553508.557175462599844 ], [ 626496.840640436741523, 553483.704750462202355 ], [ 626314.589523767237552, 553802.644204633659683 ] ] ] ] } },
{ "type": "Feature", "properties": { "id": 2, "clase": "vegetacion" }, "geometry": { "type": "MultiPolygon", "coordinates": [ [ [ [ 630268.196134243742563, 555459.472537992056459 ], [ 630698.971500916872174, 555774.269921330153011 ], [ 630400.742400912335142, 555873.679621331626549 ], [ 630268.196134243742563, 555459.472537992056459 ] ] ] ] } },
{ "type": "Feature", "properties": { "id": 2, "clase": "vegetacion" }, "geometry": { "type": "MultiPolygon", "coordinates": [ [ [ [ 630624.414225915912539, 547249.88814620161429 ], [ 630027.956025906838477, 546910.23833786312025 ], [ 630152.218150908709504, 546570.588529524742626 ], [ 630740.392209250945598, 547067.637029532226734 ], [ 630624.414225915912539, 547249.88814620161429 ] ] ] ] } },
{ "type": "Feature", "properties": { "id": 2, "clase": "vegetacion" }, "geometry": { "type": "MultiPolygon", "coordinates": [ [ [ [ 626092.988734180806205, 543948.657691985135898 ], [ 625873.458980010822415, 543824.395566983264871 ], [ 626113.699088347842917, 543302.49464197549969 ], [ 626192.398434182279743, 543874.100416984059848 ], [ 626092.988734180806205, 543948.657691985135898 ] ] ] ] } },
{ "type": "Feature", "properties": { "id": 2, "clase": "vegetacion" }, "geometry": { "type": "MultiPolygon", "coordinates": [ [ [ [ 621528.426675778697245, 555575.450521327089518 ], [ 620716.580792433116585, 554796.7412046486279 ], [ 621263.334142441279255, 554680.76322131359484 ], [ 621859.792342450353317, 555128.106871320283972 ], [ 621528.426675778697245, 555575.450521327089518 ] ] ] ] } },
{ "type": "Feature", "properties": { "id": 2, "clase": "vegetacion" }, "geometry": { "type": "MultiPolygon", "coordinates": [ [ [ [ 617353.219275715644471, 548550.498387887841091 ], [ 617419.492409049998969, 547987.176754546002485 ], [ 617817.131209056009538, 548053.449887880240567 ], [ 617552.038675718707964, 548368.247271218337119 ], [ 617353.219275715644471, 548550.498387887841091 ] ] ] ] } },
{ "type": "Feature", "properties": { "id": 3, "clase": "urbano" }, "geometry": { "type": "MultiPolygon", "coordinates": [ [ [ [ 629195.399788393871859, 545719.392973262234591 ], [ 629075.279734225361608, 545549.568069092929363 ], [ 629240.962567561189644, 545485.365971175371669 ], [ 629313.448807145701721, 545624.125344094121829 ], [ 629195.399788393871859, 545719.392973262234591 ] ] ] ] } },
{ "type": "Feature", "properties": { "id": 3, "clase": "urbano" }, "geometry": { "type": "MultiPolygon", "coordinates": [ [ [ [ 629731.797961318865418, 545885.075806598062627 ], [ 629967.895998822408728, 545866.436487847706303 ], [ 629862.27319257077761, 545702.82468992867507 ], [ 629692.448288401588798, 545822.944744097068906 ], [ 629731.797961318865418, 545885.075806598062627 ] ] ] ] } },
{ "type": "Feature", "properties": { "id": 3, "clase": "urbano" }, "geometry": { "type": "MultiPolygon", "coordinates": [ [ [ [ 631017.910955088096671, 557940.57296719646547 ], [ 631229.156567591242492, 558052.408879698137753 ], [ 631212.588284257682972, 557886.726046362309717 ], [ 631046.905450921854936, 557882.583975528832525 ], [ 631017.910955088096671, 557940.57296719646547 ] ] ] ] } },
{ "type": "Feature", "properties": { "id": 5, "clase": "nube" }, "geometry": { "type": "MultiPolygon", "coordinates": [ [ [ [ 634600.802225975436158, 550770.648354588309303 ], [ 635172.408000984112732, 550654.670371253276244 ], [ 635006.725167648284696, 550480.70339625061024 ], [ 634559.381517641479149, 550646.386229586438276 ], [ 634600.802225975436158, 550770.648354588309303 ] ] ] ] } },
{ "type": "Feature", "properties": { "id": 5, "clase": "nube" }, "geometry": { "type": "MultiPolygon", "coordinates": [ [ [ [ 627252.768567531253211, 553164.765296291094273 ], [ 627360.462409199564718, 553313.879846293362789 ], [ 627700.112217538058758, 553280.743279626243748 ], [ 627526.145242535392754, 553156.481154624372721 ], [ 627252.768567531253211, 553164.765296291094273 ] ] ] ] } },
{ "type": "Feature", "properties": { "id": 5, "clase": "nube" }, "geometry": { "type": "MultiPolygon", "coordinates": [ [ [ [ 631361.702834259951487, 556784.935204679029994 ], [ 631643.363650930812582, 556958.902179681695998 ], [ 631742.773350932402536, 556917.481471347738989 ], [ 631568.806375929736532, 556801.503488012589514 ], [ 631361.702834259951487, 556784.935204679029994 ] ] ] ] } },
{ "type": "Feature", "properties": { "id": 5, "clase": "nube" }, "geometry": { "type": "MultiPolygon", "coordinates": [ [ [ [ 634791.337484311661683, 557199.142288018600084 ], [ 634907.315467646694742, 557563.644521357491612 ], [ 635048.145875982241705, 557588.496946357889101 ], [ 635106.134867649758235, 557406.245829688385129 ], [ 634791.337484311661683, 557199.142288018600084 ] ] ] ] } },
{ "type": "Feature", "properties": { "id": 4, "clase": "roca" }, "geometry": { "type": "MultiPolygon", "coordinates": [ [ [ [ 622795.900350797688589, 541964.605762789724395 ], [ 622679.922367462655529, 541778.212575286976062 ], [ 622916.020404966198839, 541666.376662785187364 ], [ 623003.003892467473634, 541782.354646120336838 ], [ 622795.900350797688589, 541964.605762789724395 ] ] ] ] } },
{ "type": "Feature", "properties": { "id": 4, "clase": "roca" }, "geometry": { "type": "MultiPolygon", "coordinates": [ [ [ [ 624253.909284153021872, 540796.541787771973759 ], [ 624220.772717485902831, 540945.656337774242274 ], [ 624415.450046655489132, 540837.962496105930768 ], [ 624253.909284153021872, 540796.541787771973759 ] ] ] ] } },
{ "type": "Feature", "properties": { "id": 4, "clase": "roca" }, "geometry": { "type": "MultiPolygon", "coordinates": [ [ [ [ 623879.051873730611987, 545276.191394089837559 ], [ 623705.084898728062399, 545156.071339921327308 ], [ 623763.073890395578928, 545073.22992325341329 ], [ 623879.051873730611987, 545276.191394089837559 ] ] ] ] } }
]
}
